EUTELSAT 7A             
1 28187U 04008A   25211.16425126  .00000102  00000+0  00000+0 0  9997
2 28187   5.0084  75.8735 0000911  44.9626 107.1068  1.00272027 78348
EUTELSAT 174A           
1 28924U 05052A   25211.51218323  .00000011  00000+0  00000+0 0  9993
2 28924   3.4006  80.5591 0006134  50.0969 176.1311  1.00275008 71765
EUTELSAT HOTBIRD 13B    
1 29270U 06032A   25210.93308752  .00000156  00000+0  00000+0 0  9998
2 29270   0.8257  85.8817 0003977  42.1091 188.7972  1.00272518 44077
EUTELSAT HOTBIRD 13C    
1 33459U 08065A   25211.40349438 -.00000099  00000+0  00000+0 0  9996
2 33459   2.1194  83.0658 0003383  54.5028 303.4516  1.00272300 61020
EUTELSAT 36B            
1 36101U 09065A   25211.20186478  .00000114  00000+0  00000+0 0  9992
2 36101   0.0565 332.6114 0005673 156.8457 301.7834  1.00271810 57587
EUTELSAT KA-SAT 9A      
1 37258U 10069A   25211.33639951  .00000064  00000+0  00000+0 0  9999
2 37258   0.0564 309.4571 0003765 186.3037 302.5169  1.00272142 53597
EUTELSAT 7 WEST A       
1 37816U 11051A   25211.40453439 -.00000058  00000+0  00000+0 0  9998
2 37816   0.0607  10.7261 0004912 132.3811 303.4803  1.00272553 50744
EUTELSAT 16A            
1 37836U 11057A   25210.89905733  .00000104  00000+0  00000+0 0  9998
2 37836   0.0633   4.9326 0005511 123.6128 158.8723  1.00271194  4092
